0 DELTA 1 DEB
1 07084U 73086CC  13283.35370632 -.00000052  00000-0 -90515-4 0  1938
2 07084 101.8123 060.4567 0153316 157.8367 234.3759 12.25088262785459
0 DELTA 1 DEB
1 07084U 73086CC  13285.98770258 -.00000070  00000-0 -24839-3 0  1943
2 07084 101.8136 062.9431 0153307 153.0425 331.1261 12.25088166785775
0 DELTA 1 DEB
1 07084U 73086CC  13288.34081332 -.00000069  00000-0 -23930-3 0  1954
2 07084 101.8138 065.1640 0153293 148.7577 269.0852 12.25087854786068
0 DELTA 1 DEB
1 07084U 73086CC  13290.96862017 -.00000047  00000-0 -54639-4 0  1960
2 07084 101.8141 067.6441 0153285 143.9681 338.5438 12.25087595786381
0 DELTA 1 DEB
1 07084U 73086CC  13293.32191142 -.00000055  00000-0 -12402-3 0  1978
2 07084 101.8144 069.8651 0153310 139.6760 277.3006 12.25087548786671
0 DELTA 1 DEB
1 07084U 73086CC  13295.36420367 -.00000049  00000-0 -73293-4 0  1988
2 07084 101.8147 071.7926 0153336 135.9558 284.4505 12.25087744786922
